NORAD_CAT_ID,OBJECT_NAME,OBJECT_TYPE,EPOCH,MEAN_MOTION,ECCENTRICITY,INCLINATION,RA_OF_ASC_NODE,ARG_OF_PERICENTER,MEAN_ANOMALY,BSTAR,MEAN_MOTION_DOT,MEAN_MOTION_DDOT,TLE_LINE0,TLE_LINE1,TLE_LINE2,SEMIMAJOR_AXIS,PERIOD,APOGEE,PERIGEE,DECAYED
53720.0,STARLINK-4642,PAYLOAD,2024-07-07 22:15:28,15.08844557,0.0001635,53.2179,111.2059,101.1783,258.9393,0.00026071,3.864e-05,0.0,0 STARLINK-4642,1 53720U 22107W   24189.92741797  .00003864  00000-0  26071-3 0  9999,2 53720  53.2179 111.2059 0001635 101.1783 258.9393 15.08844557102369,6917.866,95.437,540.863,538.6,0.0
53720.0,STARLINK-4642,PAYLOAD,2024-07-08 22:06:16,15.08840852,0.0001415,53.2164,106.7451,101.9321,258.183,0.00015177,2.128e-05,0.0,0 STARLINK-4642,1 53720U 22107W   24190.92101854  .00002128  00000-0  15177-3 0  9992,2 53720  53.2164 106.7451 0001415 101.9321 258.1830 15.08840852102519,6917.878,95.438,540.722,538.764,0.0
53720.0,STARLINK-4642,PAYLOAD,2024-07-09 01:17:02,15.08841477,0.0001371,53.2167,106.1517,98.1601,261.9547,0.00014613,2.039e-05,0.0,0 STARLINK-4642,1 53720U 22107W   24191.05349836  .00002039  00000-0  14613-3 0  9996,2 53720  53.2167 106.1517 0001371  98.1601 261.9547 15.08841477102070,6917.876,95.437,540.689,538.792,0.0
53720.0,STARLINK-4642,PAYLOAD,2024-07-09 10:49:20,15.08850864,0.0001234,53.2161,104.3661,94.8325,265.2808,0.00020284,2.943e-05,0.0,0 STARLINK-4642,1 53720U 22107W   24191.45093161  .00002943  00000-0  20284-3 0  9992,2 53720  53.2161 104.3661 0001234  94.8325 265.2808 15.08850864102132,6917.847,95.437,540.566,538.859,0.0
53720.0,STARLINK-4642,PAYLOAD,2024-07-09 18:46:17,15.08826969,0.0001468,53.2162,102.8789,84.8677,275.2483,-0.00014285,-2.56e-05,0.0,0 STARLINK-4642,1 53720U 22107W   24191.78214510 -.00002560  00000-0 -14285-3 0  9992,2 53720  53.2162 102.8789 0001468  84.8677 275.2483 15.08826969102189,6917.92,95.438,540.801,538.77,0.0
53720.0,STARLINK-4642,PAYLOAD,2024-07-09 21:57:03,15.08828734,0.0001412,53.2164,102.2844,90.2617,269.8537,-0.00011195,-2.069e-05,0.0,0 STARLINK-4642,1 53720U 22107W   24191.91462468 -.00002069  00000-0 -11195-3 0  9995,2 53720  53.2164 102.2844 0001412  90.2617 269.8537 15.08828734102665,6917.915,95.438,540.757,538.803,0.0
53720.0,STARLINK-4642,PAYLOAD,2024-07-10 10:40:08,15.08841844,0.0001659,53.2169,99.9097,79.0684,281.0495,3.3513e-05,2.45e-06,0.0,0 STARLINK-4642,1 53720U 22107W   24192.44454043  .00000245  00000-0  33513-4 0  9995,2 53720  53.2169  99.9097 0001659  79.0684 281.0495 15.08841844102288,6917.875,95.437,540.887,538.592,0.0
53720.0,STARLINK-4642,PAYLOAD,2024-07-10 21:47:50,15.08833436,0.000156,53.2173,97.828,101.5679,258.5488,1.4512e-05,-5.7e-07,0.0,0 STARLINK-4642,1 53720U 22107W   24192.90822606 -.00000057  00000-0  14512-4 0  9990,2 53720  53.2173  97.8280 0001560 101.5679 258.5488 15.08833436102818,6917.9,95.438,540.845,538.686,0.0
53720.0,STARLINK-4642,PAYLOAD,2024-07-11 02:34:00,15.08838613,0.0001403,53.2171,96.9344,90.0779,270.0374,7.1763e-05,8.54e-06,0.0,0 STARLINK-4642,1 53720U 22107W   24193.10694445  .00000854  00000-0  71763-4 0  9996,2 53720  53.2171  96.9344 0001403  90.0779 270.0374 15.08838613102383,6917.885,95.438,540.72,538.779,0.0
53720.0,STARLINK-4642,PAYLOAD,2024-07-12 10:21:42,15.08850097,0.0001284,53.2165,90.9852,81.9564,278.1573,0.00021571,3.148e-05,0.0,0 STARLINK-4642,1 53720U 22107W   24194.43174033  .00003148  00000-0  21571-3 0  9999,2 53720  53.2165  90.9852 0001284  81.9564 278.1573 15.08850097102584,6917.85,95.437,540.603,538.826,0.0
53720.0,STARLINK-4642,PAYLOAD,2024-07-12 23:04:48,15.08835602,0.0001165,53.2172,88.6073,82.5792,277.5332,8.6307e-05,1.086e-05,0.0,0 STARLINK-4642,1 53720U 22107W   24194.96166919  .00001086  00000-0  86307-4 0  9999,2 53720  53.2172  88.6073 0001165  82.5792 277.5332 15.08835602103121,6917.894,95.438,540.565,538.953,0.0
53720.0,STARLINK-4642,PAYLOAD,2024-07-13 03:50:56,15.08851862,0.0001336,53.2154,87.7157,84.8362,275.2783,0.00029241,4.37e-05,0.0,0 STARLINK-4642,1 53720U 22107W   24195.16038144  .00004370  00000-0  29241-3 0  9992,2 53720  53.2154  87.7157 0001336  84.8362 275.2783 15.08851862102694,6917.844,95.437,540.633,538.785,0.0
53720.0,STARLINK-4642,PAYLOAD,2024-07-13 13:23:16,15.08832818,0.0001393,53.215,85.9316,77.1365,282.9782,-0.00014287,-2.561e-05,0.0,0 STARLINK-4642,1 53720U 22107W   24195.55782632 -.00002561  00000-0 -14287-3 0  9999,2 53720  53.2150  85.9316 0001393  77.1365 282.9782 15.08832818103211,6917.902,95.438,540.731,538.804,0.0
53720.0,STARLINK-4642,PAYLOAD,2024-07-13 21:20:11,15.08843521,0.0001332,53.2154,84.4443,84.6179,275.4965,0.00020412,2.962e-05,0.0,0 STARLINK-4642,1 53720U 22107W   24195.88902480  .00002962  00000-0  20412-3 0  9990,2 53720  53.2154  84.4443 0001332  84.6179 275.4965 15.08843521102806,6917.87,95.437,540.656,538.813,0.0
53720.0,STARLINK-4642,PAYLOAD,2024-07-13 22:55:34,15.08844859,0.0001318,53.2152,84.1469,85.334,274.7803,0.00023992,3.533e-05,0.0,0 STARLINK-4642,1 53720U 22107W   24195.95526393  .00003533  00000-0  23992-3 0  9994,2 53720  53.2152  84.1469 0001318  85.3340 274.7803 15.08844859103271,6917.866,95.437,540.642,538.819,0.0
53720.0,STARLINK-4642,PAYLOAD,2024-07-14 13:14:02,15.08849307,0.0001326,53.2154,81.4704,106.1652,253.9486,0.00049592,7.615e-05,0.0,0 STARLINK-4642,1 53720U 22107W   24196.55142074  .00007615  00000-0  49592-3 0  9990,2 53720  53.2154  81.4704 0001326 106.1652 253.9486 15.08849307103361,6917.852,95.437,540.634,538.8,0.0
53720.0,STARLINK-4642,PAYLOAD,2024-07-14 22:46:21,15.08848135,0.0001234,53.2156,79.6866,94.4301,265.6832,0.001479,0.00023334,0.0,0 STARLINK-4642,1 53720U 22107W   24196.94886368  .00023334  00000-0  14790-2 0  9991,2 53720  53.2156  79.6866 0001234  94.4301 265.6832 15.08848135103429,6917.856,95.437,540.574,538.867,0.0
53720.0,STARLINK-4642,PAYLOAD,2024-07-15 01:57:08,15.08853233,0.0001267,53.2157,79.0919,90.1666,269.9472,0.0017785,0.0002814,0.0,0 STARLINK-4642,1 53720U 22107W   24197.08134304  .00028140  00000-0  17785-2 0  9990,2 53720  53.2157  79.0919 0001267  90.1666 269.9472 15.08853233102988,6917.84,95.437,540.581,538.828,0.0
53720.0,STARLINK-4642,PAYLOAD,2024-07-15 21:01:46,15.08836308,0.0001476,53.2162,75.5232,54.08,306.0329,0.00092159,0.00014408,0.0,0 STARLINK-4642,1 53720U 22107W   24197.87622871  .00014408  00000-0  92159-3 0  9999,2 53720  53.2162  75.5232 0001476  54.0800 306.0329 15.08836308103107,6917.892,95.438,540.778,538.736,0.0
53720.0,STARLINK-4642,PAYLOAD,2024-07-15 22:37:09,15.08837636,0.0001368,53.2162,75.2259,81.0843,279.0304,0.00099582,0.00015595,0.0,0 STARLINK-4642,1 53720U 22107W   24197.94246764  .00015595  00000-0  99582-3 0  9995,2 53720  53.2162  75.2259 0001368  81.0843 279.0304 15.08837636103578,6917.888,95.438,540.699,538.806,0.0
53720.0,STARLINK-4642,PAYLOAD,2024-07-16 22:27:56,15.08854761,0.0001309,53.2163,70.7653,81.1649,278.9492,0.00084327,0.00013164,0.0,0 STARLINK-4642,1 53720U 22107W   24198.93606607  .00013164  00000-0  84327-3 0  9992,2 53720  53.2163  70.7653 0001309  81.1649 278.9492 15.08854761103728,6917.835,95.437,540.606,538.795,0.0
53720.0,STARLINK-4642,PAYLOAD,2024-07-17 01:38:42,15.08855077,0.0001299,53.2165,70.1705,79.1666,280.9472,0.00065067,0.00010087,0.0,0 STARLINK-4642,1 53720U 22107W   24199.06854448  .00010087  00000-0  65067-3 0  9996,2 53720  53.2165  70.1705 0001299  79.1666 280.9472 15.08855077103289,6917.834,95.437,540.598,538.801,0.0
53720.0,STARLINK-4642,PAYLOAD,2024-07-17 08:00:14,15.08866524,0.0001328,53.2173,68.9819,80.2085,279.9057,0.00077962,0.0001215,0.0,0 STARLINK-4642,1 53720U 22107W   24199.33349878  .00012150  00000-0  77962-3 0  9992,2 53720  53.2173  68.9819 0001328  80.2085 279.9057 15.08866524103781,6917.799,95.436,540.583,538.746,0.0
53720.0,STARLINK-4642,PAYLOAD,2024-07-17 20:43:20,15.0882933,0.0001346,53.2168,66.601,75.0614,285.0527,-0.00023972,-4.1e-05,0.0,0 STARLINK-4642,1 53720U 22107W   24199.86342917 -.00004100  00000-0 -23972-3 0  9997,2 53720  53.2168  66.6010 0001346  75.0614 285.0527 15.08829330103406,6917.913,95.438,540.709,538.847,0.0
53720.0,STARLINK-4642,PAYLOAD,2024-07-18 07:51:01,15.0885526,0.0001247,53.2169,64.5221,82.4971,277.6163,0.0011677,0.00018353,0.0,0 STARLINK-4642,1 53720U 22107W   24200.32710557  .00018353  00000-0  11677-2 0  9991,2 53720  53.2169  64.5221 0001247  82.4971 277.6163 15.08855260103938,6917.834,95.437,540.561,538.836,0.0
53720.0,STARLINK-4642,PAYLOAD,2024-07-18 20:34:07,15.08830714,0.0001371,53.2165,62.1434,84.1668,275.948,0.0007842,0.00012211,0.0,0 STARLINK-4642,1 53720U 22107W   24200.85703534  .00012211  00000-0  78420-3 0  9993,2 53720  53.2165  62.1434 0001371  84.1668 275.9480 15.08830714103552,6917.909,95.438,540.722,538.825,0.0
53720.0,STARLINK-4642,PAYLOAD,2024-07-18 22:09:30,15.08838165,0.0001332,53.2167,61.8457,80.8587,279.2556,0.0011751,0.00018462,0.0,0 STARLINK-4642,1 53720U 22107W   24200.92327527  .00018462  00000-0  11751-2 0  9992,2 53720  53.2167  61.8457 0001332  80.8587 279.2556 15.08838165104027,6917.886,95.438,540.672,538.83,0.0
53720.0,STARLINK-4642,PAYLOAD,2024-07-19 07:41:49,15.08862928,0.0001464,53.2171,60.0607,72.3517,287.7635,0.0020964,0.00033255,0.0,0 STARLINK-4642,1 53720U 22107W   24201.32071336  .00033255  00000-0  20964-2 0  9994,2 53720  53.2171  60.0607 0001464  72.3517 287.7635 15.08862928103626,6917.81,95.436,540.688,538.663,0.0
53720.0,STARLINK-4642,PAYLOAD,2024-07-19 20:24:54,15.08847761,0.0001148,53.2161,57.6818,78.4932,281.6189,0.0014385,0.00022685,0.0,0 STARLINK-4642,1 53720U 22107W   24201.85063547  .00022685  00000-0  14385-2 0  9992,2 53720  53.2161  57.6818 0001148  78.4932 281.6189 15.08847761103702,6917.857,95.437,540.516,538.927,0.0
53720.0,STARLINK-4642,PAYLOAD,2024-07-19 22:00:18,15.08848809,0.000112,53.2161,57.3845,77.1673,282.9444,0.0017565,0.00027784,0.0,0 STARLINK-4642,1 53720U 22107W   24201.91687573  .00027784  00000-0  17565-2 0  9998,2 53720  53.2161  57.3845 0001120  77.1673 282.9444 15.08848809104171,6917.853,95.437,540.493,538.944,0.0
